{
  "norad_id": 58019,
  "name": "ANSER FOLLOWER 1",
  "history": [
    {
      "epoch": "2026-03-26T18:19:39.805824",
      "apogee_km": 448.33652291815815,
      "perigee_km": 446.9253636535641,
      "latitude_deg": -71.95599189889465,
      "longitude_deg": -136.7891046400182,
      "semi_major_axis_km": 6825.767943285861,
      "eccentricity": 0.00010337,
      "inclination_deg": 97.5585,
      "raan_deg": 172.4254,
      "arg_perigee_deg": 120.3939,
      "mean_anomaly_deg": 239.7408,
      "mean_motion_rev_day": 15.39485075
    }
  ]
}