{"fetched_at":"2026-03-29T02:12:04Z","count":15717,"tles":[{"name":"ANSER FOLLOWER 1","line1":"1 58019U 23155D   26085.76365516  .00022139  00000+0  56560-3 0  9990","line2":"2 58019  97.5585 172.4254 0001033 120.3939 239.7408 15.39485075136249","category":"Other"}]}